1 44240U 19029F   20107.58334491 -.00032452 +00000-0 -69911-3 0  9999
2 44240 053.0055 099.6952 0000960 105.4691 152.6307 15.43814131001922
1 44240U 19029F   20107.66667824 -.00030190 +00000-0 -64959-3 0  9991
2 44240 053.0057 099.2981 0000988 110.0555 251.4521 15.43812223050181
1 44240U 19029F   20108.25001157 -.00014988  00000-0 -31727-3 0  9992
2 44240  53.0058  96.5231 0000990 105.1419 260.2038 15.43810670 50272
1 44240U 19029F   20108.58334491 -.00027067 +00000-0 -58093-3 0  9995
2 44240 053.0060 094.9364 0000910 104.1589 314.8136 15.43826996001474
1 44240U 19029F   20108.75001157  .00021375  00000-0  47256-3 0  9997
2 44240  53.0064  94.1423 0000952 112.4530 153.3500 15.43802249 50357
1 44240U 19029F   20109.58334491 -.00037213  00000-0 -80271-3 0  9993
2 44240  53.0064  90.1773 0000919 100.7177 119.1782 15.43844013 50482
1 44240U 19029F   20109.91667824 +.00031564 +00000-0 +69212-3 0  9992
2 44240 053.0066 088.5898 0001020 110.6410 162.9169 15.43820574001675
1 44240U 19029F   20110.25001157 -.00002567  00000-0 -46654-4 0  9991
2 44240  53.0064  87.0054 0001013  94.6535 232.5701 15.43833233 50588
1 44240U 19029F   20110.91667824 +.00022277 +00000-0 +49141-3 0  9994
2 44240 053.0063 083.8310 0001051 106.8705 327.6912 15.43840605001838
1 44240U 19029F   20111.25001157  .00022571  00000-0  49776-3 0  9994
2 44240  53.0061  82.2466 0001004  94.5283  33.7126 15.43841211 50743
1 44240U 19029F   20111.83334491 +.00040617 +00000-0 +88645-3 0  9997
2 44240 053.0059 079.4686 0001018 109.5749 022.6166 15.43838534001865
1 44240U 19029F   20112.25002315 +.00013022 +00000-0 +29125-3 0  9999
2 44240 053.0061 077.4876 0001009 093.6881 195.6860 15.43854036050891
1 44240U 19029F   20112.91667824  .00017831  00000-0  39468-3 0  9997
2 44240  53.0066  74.3130 0001002 109.7856 286.9749 15.43894019 50995
1 44240U 19029F   20113.58335648 -.00022500 +00000-0 -47944-3 0  9996
2 44240 053.0073 071.1406 0000910 100.3087 044.0114 15.43927197001779
1 44240U 19029F   20113.91667824 +.00013529 +00000-0 +30146-3 0  9992
2 44240 053.0076 069.5539 0001034 106.6182 091.3999 15.43929131001768
1 44240U 19029F   20114.25001157  .00041746  00000-0  90833-3 0  9992
2 44240  53.0079  67.9692 0001000  88.7192 163.0868 15.43915762 51208
1 44240U 19029F   20114.58334491 -.00007421 +00000-0 -15161-3 0  9993
2 44240 053.0081 066.3813 0000947 095.8903 209.6939 15.43949362001773
1 44240U 19029F   20114.91667824 -.00002349  00000-0 -41723-4 0  9997
2 44240  53.0082  64.7946 0001023 100.1901 259.1875 15.43962057 51306
1 44240U 19029F   20115.58334491 -.00004702 +00000-0 -92637-4 0  9997
2 44240 053.0081 061.6220 0000962 095.2254 011.7754 15.43966802001723
1 44240U 19029F   20115.91667824 +.00002946 +00000-0 +72733-4 0  9994
2 44240 053.0081 060.0357 0001056 100.2558 060.5601 15.43981476001778
1 44240U 19029F   20116.25002315  .00048073  00000-0  10423-2 0  9997
2 44240  53.0079  58.4508 0001034  85.1784 129.5491 15.43957350 51516
1 44240U 19029F   20116.58334491 -.00000968 +00000-0 -11832-4 0  9996
2 44240 053.0079 056.8627 0000991 097.5297 170.9698 15.43988772001771
1 44240U 19029F   20116.91667824 -.00002964  00000-0 -54940-4 0  9997
2 44240  53.0079  55.2764 0001030 102.5085 219.8340 15.44009246 51619
1 44240U 19029F   20117.50001157 -.00030649 +00000-0 -65481-3 0  9996
2 44240 053.0080 052.5001 0000969 094.9694 231.6441 15.44028251001813
1 44240U 19029F   20117.75002315  .00047189  00000-0  10219-2 0  9993
2 44240  53.0081  51.3090 0001009 103.6624 173.4351 15.44001294 51744
1 44240U 19029F   20118.33335648  .00017777  00000-0  39162-3 0  9995
2 44240  53.0083  48.5344 0000947  86.2050 195.2091 15.44037376 51838
1 44240U 19029F   20118.91667824 -.00023026 +00000-0 -48829-3 0  9999
2 44240 053.0088 045.7566 0001056 097.0092 188.7077 15.44082671001762
1 44240U 19029F   20119.25001157 +.00054746 +00000-0 +11807-2 0  9994
2 44240 053.0089 044.1712 0001023 082.3980 257.2811 15.44057516001775
1 44240U 19029F   20119.58334491  .00041620  00000-0  90074-3 0  9991
2 44240  53.0090  42.5825 0000996  95.6574 297.9876 15.44076376 52029
1 44240U 19029F   20119.91668981 -.00017466 +00000-0 -36742-3 0  9997
2 44240 053.0088 040.9963 0001069 092.8012 354.8754 15.44123604001770
1 44240U 19029F   20120.25001157  .00052233  00000-0  11258-2 0  9995
2 44240  53.0085  39.4105 0001069  80.6262  60.9938 15.44096331 52131
1 44240U 19029F   20120.91667824 -.00021060  00000-0 -44459-3 0  9993
2 44240  53.0085  36.2358 0001102  92.7992 156.8425 15.44156726 52230
1 44240U 19029F   20121.25001157 +.00040880 +00000-0 +88315-3 0  9990
2 44240 053.0081 034.6497 0001062 082.4151 221.2740 15.44137238001867
1 44240U 19029F   20121.41667824 -.00027041  00000-0 -57351-3 0  9999
2 44240  53.0082  33.8552 0001071  89.8208  60.8837 15.44175240 52310
1 44240U 19029F   20121.91668981 -.00019957 +00000-0 -42036-3 0  9990
2 44240 053.0083 031.4750 0001065 095.5839 316.2510 15.44185567001775
1 44240U 19029F   20122.25001157  .00030802  00000-0  66796-3 0  9993
2 44240  53.0085  29.8885 0001032  84.3306  21.5090 15.44162426 52433
1 44240U 19029F   20122.91667824  .00099096  00000-0  21100-2 0  9994
2 44240  53.0090  26.7139 0001028  94.5324 119.4209 15.44164405 52545
1 44240U 19029F   20123.25001157  .00012812  00000-0  28360-3 0  9990
2 44240  53.0093  25.1272 0001025  83.5033 184.5286 15.44180162 52592
1 44240U 19029F   20123.58334491 +.00052148 +00000-0 +11213-2 0  9990
2 44240 053.0098 023.5384 0001058 096.4448 225.6853 15.44167502001822
1 44240U 19029F   20123.91667824 -.00017292 +00000-0 -36244-3 0  9991
2 44240 053.0100 021.9525 0001115 088.5791 287.6445 15.44220506001786
1 44240U 19029F   20124.25001157 +.00018158 +00000-0 +39740-3 0  9994
2 44240 053.0100 020.3659 0001083 078.8749 351.4687 15.44215418001779
1 44240U 19029F   20124.58334491  .00049508  00000-0  10640-2 0  9990
2 44240  53.0102  18.7771 0001074  93.1943  31.2867 15.44205115 52809
1 44240U 19029F   20124.91667824 -.00013802 +00000-0 -28708-3 0  9991
2 44240 053.0101 017.1914 0001132 085.1526 093.4611 15.44246187001774
1 44240U 19029F   20125.25001157 -.00002642  00000-0 -47554-4 0  9991
2 44240  53.0097  15.6047 0001113  80.4389 152.3241 15.44251123 52903
1 44240U 19029F   20125.58334491 +.00056726 +00000-0 +12156-2 0  9995
2 44240 053.0099 014.0160 0001102 094.7822 192.1545 15.44231403001779
1 44240U 19029F   20125.91668981 -.00015641 +00000-0 -32630-3 0  9999
2 44240 053.0098 012.4304 0001150 086.7916 254.3750 15.44275030001760
1 44240U 19029F   20126.25001157 -.00003356  00000-0 -62784-4 0  9997
2 44240  53.0095  10.8433 0001094  82.3451 312.9408 15.44281086 53053
1 44240U 19029F   20126.91668981 -.00014456 +00000-0 -30055-3 0  9992
2 44240 053.0098 007.6689 0001115 088.1068 055.6535 15.44302723001771
1 44240U 19029F   20127.25001157 -.00003921  00000-0 -74787-4 0  9992
2 44240  53.0100   6.0815 0001051  85.0389 112.8734 15.44317350 53215
1 44240U 19029F   20127.83335648 -.00019830 +00000-0 -41540-3 0  9997
2 44240 053.0104 003.3032 0001140 090.4005 112.5018 15.44340061001809
1 44240U 19029F   20128.16667824  .00026131  00000-0  56518-3 0  9999
2 44240  53.0103   1.7166 0001092  81.2766 175.8260 15.44329985 53356
1 44240U 19029F   20128.58334491 +.00049127 +00000-0 +10512-2 0  9999
2 44240 053.0106 359.7302 0001124 093.4918 321.4675 15.44337827001779
1 44240U 19029F   20128.91667824 -.00006253 +00000-0 -12445-3 0  9998
2 44240 053.0104 358.1446 0001173 081.9489 027.3003 15.44368837001770
1 44240U 19029F   20129.25001157 -.00024961  00000-0 -52464-3 0  9998
2 44240  53.0104 356.5566 0001131  80.3160  83.2332 15.44391951 53527
1 44240U 19029F   20129.91667824 -.00004452  00000-0 -85913-4 0  9999
2 44240  53.0101 353.3821 0001229  80.9568 191.2541 15.44396861 53627
1 44240U 19029F   20130.08334491  .00050783  00000-0  10846-2 0  9997
2 44240  53.0099 352.5886 0001193  78.0251  41.3613 15.44378848 53655
1 44240U 19029F   20130.91668981 -.00002850  00000-0 -51717-4 0  9991
2 44240  53.0099 348.6193 0001181  82.9583 352.3181 15.44410159 53771
1 44240U 19029F   20131.58334491 +.00031500 +00000-0 +67696-3 0  9995
2 44240 053.0102 345.4421 0001128 096.7651 087.1662 15.44417486001775
1 44240U 19029F   20131.91667824  .00014678  00000-0  32087-3 0  9994
2 44240  53.0103 343.8563 0001137  81.9051 156.4054 15.44422650 53934
1 44240U 19029F   20132.58334491 +.00032195 +00000-0 +69109-3 0  9998
2 44240 053.0111 340.6790 0001124 093.7634 253.3138 15.44441385001775
1 44240U 19029F   20132.91667824 +.00011054 +00000-0 +24379-3 0  9995
2 44240 053.0112 339.0932 0001181 080.6841 320.8018 15.44447278001789
1 44240U 19029F   20133.25001157 -.00024971  00000-0 -52337-3 0  9993
2 44240  53.0115 337.5044 0001093  83.1093  12.7800 15.44475531 54134
1 44240U 19029F   20133.91667824 +.00021716 +00000-0 +46953-3 0  9994
2 44240 053.0116 334.3303 0001210 076.4301 128.3054 15.44452234001778
1 44240U 19029F   20134.25001157 -.00024866  00000-0 -52103-3 0  9998
2 44240  53.0115 332.7413 0001130  81.7384 177.4096 15.44480584 54297
1 44240U 19029F   20134.58334491 +.00009915 +00000-0 +21939-3 0  9993
2 44240 053.0115 331.1533 0001151 090.0671 223.5058 15.44478298001773
1 44240U 19029F   20134.91667824 +.00019311 +00000-0 +41847-3 0  9990
2 44240 053.0112 329.5675 0001215 077.8642 290.1551 15.44465675054399
1 44240U 19029F   20135.25001157 -.00018386 +00000-0 -38242-3 0  9997
2 44240 053.0111 327.9784 0001106 086.1115 336.3438 15.44492002001773
1 44240U 19029F   20135.91667824 +.00040895 +00000-0 +87335-3 0  9994
2 44240 053.0111 324.8046 0001127 078.6928 092.6762 15.44477935001771
1 44240U 19029F   20136.50001157  .00027967  00000-0  60060-3 0  9992
2 44240  53.0112 322.0239 0001090  95.3837  81.2940 15.44502415 54648
1 44240U 19029F   20136.58334491 +.00021770 +00000-0 +46977-3 0  9997
2 44240 053.0115 321.6274 0001077 092.6096 187.6707 15.44508908001778
1 44240U 19029F   20136.85656986 -.00004667 +00000-0 -90346-4 0  9991
2 44240 053.0105 320.3281 0001208 082.7324 277.3819 15.44441704053915
